{
  "type": "FeatureCollection",
  "features": [
    {
      "type": "Feature",
      "properties": {
        "norad_id": 55973,
        "name": "TIANMU-1 03",
        "group": "weather",
        "lat": 16.92831622732184,
        "lon": -13.238173664991793,
        "alt_km": 444.7941772774475,
        "timestamp": "2025-12-27T09:28:56.109849+00:00",
        "meta_object_name": "TIANMU-1 03",
        "meta_object_id": "2023-039A",
        "meta_epoch": "2025-12-27T04:06:14.755104",
        "meta_mean_motion": 15.41355851,
        "meta_eccentricity": 0.0003655,
        "meta_inclination": 97.5115,
        "meta_ra_of_asc_node": 164.2297,
        "meta_arg_of_pericenter": 18.4815,
        "meta_mean_anomaly": 341.6563,
        "meta_ephemeris_type": 0,
        "meta_classification_type": "U",
        "meta_norad_cat_id": 55973,
        "meta_element_set_no": 999,
        "meta_rev_at_epoch": 15428,
        "meta_bstar": 0.00043736,
        "meta_mean_motion_dot": 0.00018184,
        "meta_mean_motion_ddot": 0,
        "tle_line1": "1 55973U 23039A   25361.17100411  .00018184  00000+0  43736-3 0  9995",
        "tle_line2": "2 55973  97.5115 164.2297 0003655  18.4815 341.6563 15.41355851154282"
      },
      "geometry": {
        "type": "Point",
        "coordinates": [
          -13.238173664991793,
          16.92831622732184
        ]
      }
    },
    {
      "type": "Feature",
      "properties": {
        "norad_id": 55974,
        "name": "TIANMU-1 04",
        "group": "weather",
        "lat": -64.35576352101539,
        "lon": 179.58371974520642,
        "alt_km": 447.6241614127166,
        "timestamp": "2025-12-27T09:28:56.109898+00:00",
        "meta_object_name": "TIANMU-1 04",
        "meta_object_id": "2023-039B",
        "meta_epoch": "2025-12-27T05:05:31.990848",
        "meta_mean_motion": 15.41701947,
        "meta_eccentricity": 0.000425,
        "meta_inclination": 97.5046,
        "meta_ra_of_asc_node": 163.4574,
        "meta_arg_of_pericenter": 11.6902,
        "meta_mean_anomaly": 348.4443,
        "meta_ephemeris_type": 0,
        "meta_classification_type": "U",
        "meta_norad_cat_id": 55974,
        "meta_element_set_no": 999,
        "meta_rev_at_epoch": 15429,
        "meta_bstar": 0.00045309,
        "meta_mean_motion_dot": 0.00019062,
        "meta_mean_motion_ddot": 0,
        "tle_line1": "1 55974U 23039B   25361.21217582  .00019062  00000+0  45309-3 0  9993",
        "tle_line2": "2 55974  97.5046 163.4574 0004250  11.6902 348.4443 15.41701947154293"
      },
      "geometry": {
        "type": "Point",
        "coordinates": [
          179.58371974520642,
          -64.35576352101539
        ]
      }
    },
    {
      "type": "Feature",
      "properties": {
        "norad_id": 55975,
        "name": "TIANMU-1 05",
        "group": "weather",
        "lat": -53.07387218291747,
        "lon": 174.24733475655344,
        "alt_km": 449.3203113454574,
        "timestamp": "2025-12-27T09:28:56.109914+00:00",
        "meta_object_name": "TIANMU-1 05",
        "meta_object_id": "2023-039C",
        "meta_epoch": "2025-12-27T05:02:26.154816",
        "meta_mean_motion": 15.41313386,
        "meta_eccentricity": 0.0003847,
        "meta_inclination": 97.5093,
        "meta_ra_of_asc_node": 163.948,
        "meta_arg_of_pericenter": 38.5691,
        "meta_mean_anomaly": 321.5829,
        "meta_ephemeris_type": 0,
        "meta_classification_type": "U",
        "meta_norad_cat_id": 55975,
        "meta_element_set_no": 999,
        "meta_rev_at_epoch": 15427,
        "meta_bstar": 0.00044754,
        "meta_mean_motion_dot": 0.00018584,
        "meta_mean_motion_ddot": 0,
        "tle_line1": "1 55975U 23039C   25361.21002494  .00018584  00000+0  44754-3 0  9999",
        "tle_line2": "2 55975  97.5093 163.9480 0003847  38.5691 321.5829 15.41313386154275"
      },
      "geometry": {
        "type": "Point",
        "coordinates": [
          174.24733475655344,
          -53.07387218291747
        ]
      }
    },
    {
      "type": "Feature",
      "properties": {
        "norad_id": 55976,
        "name": "TIANMU-1 06",
        "group": "weather",
        "lat": -73.01221458987182,
        "lon": -169.79951853062343,
        "alt_km": 449.0177569169091,
        "timestamp": "2025-12-27T09:28:56.109925+00:00",
        "meta_object_name": "TIANMU-1 06",
        "meta_object_id": "2023-039D",
        "meta_epoch": "2025-12-27T05:07:58.158912",
        "meta_mean_motion": 15.41752373,
        "meta_eccentricity": 0.0004091,
        "meta_inclination": 97.5103,
        "meta_ra_of_asc_node": 164.429,
        "meta_arg_of_pericenter": 32.1269,
        "meta_mean_anomaly": 328.0227,
        "meta_ephemeris_type": 0,
        "meta_classification_type": "U",
        "meta_norad_cat_id": 55976,
        "meta_element_set_no": 999,
        "meta_rev_at_epoch": 15429,
        "meta_bstar": 0.00044219,
        "meta_mean_motion_dot": 0.00018632,
        "meta_mean_motion_ddot": 0,
        "tle_line1": "1 55976U 23039D   25361.21386758  .00018632  00000+0  44219-3 0  9998",
        "tle_line2": "2 55976  97.5103 164.4290 0004091  32.1269 328.0227 15.41752373154295"
      },
      "geometry": {
        "type": "Point",
        "coordinates": [
          -169.79951853062343,
          -73.01221458987182
        ]
      }
    },
    {
      "type": "Feature",
      "properties": {
        "norad_id": 56232,
        "name": "FENGYUN 3G",
        "group": "weather",
        "lat": 25.55685875441913,
        "lon": 175.51687492626468,
        "alt_km": 407.27393799595757,
        "timestamp": "2025-12-27T09:28:56.109935+00:00",
        "meta_object_name": "FENGYUN 3G",
        "meta_object_id": "2023-055A",
        "meta_epoch": "2025-12-27T03:09:18.391104",
        "meta_mean_motion": 15.52182098,
        "meta_eccentricity": 0.000392,
        "meta_inclination": 49.9927,
        "meta_ra_of_asc_node": 153.1941,
        "meta_arg_of_pericenter": 298.1124,
        "meta_mean_anomaly": 61.9446,
        "meta_ephemeris_type": 0,
        "meta_classification_type": "U",
        "meta_norad_cat_id": 56232,
        "meta_element_set_no": 999,
        "meta_rev_at_epoch": 15326,
        "meta_bstar": 0.00054518,
        "meta_mean_motion_dot": 0.00033365,
        "meta_mean_motion_ddot": 0,
        "tle_line1": "1 56232U 23055A   25361.13146286  .00033365  00000+0  54518-3 0  9996",
        "tle_line2": "2 56232  49.9927 153.1941 0003920 298.1124  61.9446 15.52182098153263"
      },
      "geometry": {
        "type": "Point",
        "coordinates": [
          175.51687492626468,
          25.55685875441913
        ]
      }
    },
    {
      "type": "Feature",
      "properties": {
        "norad_id": 57166,
        "name": "METEOR-M2 3",
        "group": "weather",
        "lat": 79.84911007755252,
        "lon": -67.24281822381145,
        "alt_km": 805.9066868071268,
        "timestamp": "2025-12-27T09:28:56.109945+00:00",
        "meta_object_name": "METEOR-M2 3",
        "meta_object_id": "2023-091A",
        "meta_epoch": "2025-12-27T05:39:49.015872",
        "meta_mean_motion": 14.24027833,
        "meta_eccentricity": 0.0003156,
        "meta_inclination": 98.6357,
        "meta_ra_of_asc_node": 54.5207,
        "meta_arg_of_pericenter": 322.7587,
        "meta_mean_anomaly": 37.3373,
        "meta_ephemeris_type": 0,
        "meta_classification_type": "U",
        "meta_norad_cat_id": 57166,
        "meta_element_set_no": 999,
        "meta_rev_at_epoch": 13004,
        "meta_bstar": 2.5636e-05,
        "meta_mean_motion_dot": 1.5e-07,
        "meta_mean_motion_ddot": 0,
        "tle_line1": "1 57166U 23091A   25361.23598398  .00000015  00000+0  25636-4 0  9995",
        "tle_line2": "2 57166  98.6357  54.5207 0003156 322.7587  37.3373 14.24027833130045"
      },
      "geometry": {
        "type": "Point",
        "coordinates": [
          -67.24281822381145,
          79.84911007755252
        ]
      }
    },
    {
      "type": "Feature",
      "properties": {
        "norad_id": 57399,
        "name": "TIANMU-1 07",
        "group": "weather",
        "lat": 7.42956100194582,
        "lon": 49.96550785032383,
        "alt_km": 480.3110080719789,
        "timestamp": "2025-12-27T09:28:56.109956+00:00",
        "meta_object_name": "TIANMU-1 07",
        "meta_object_id": "2023-101A",
        "meta_epoch": "2025-12-27T04:44:07.375776",
        "meta_mean_motion": 15.28280713,
        "meta_eccentricity": 0.0004862,
        "meta_inclination": 97.2857,
        "meta_ra_of_asc_node": 50.728,
        "meta_arg_of_pericenter": 43.8676,
        "meta_mean_anomaly": 316.295,
        "meta_ephemeris_type": 0,
        "meta_classification_type": "U",
        "meta_norad_cat_id": 57399,
        "meta_element_set_no": 999,
        "meta_rev_at_epoch": 13536,
        "meta_bstar": 0.00030873,
        "meta_mean_motion_dot": 8.437e-05,
        "meta_mean_motion_ddot": 0,
        "tle_line1": "1 57399U 23101A   25361.19730759  .00008437  00000+0  30873-3 0  9993",
        "tle_line2": "2 57399  97.2857  50.7280 0004862  43.8676 316.2950 15.28280713135360"
      },
      "geometry": {
        "type": "Point",
        "coordinates": [
          49.96550785032383,
          7.42956100194582
        ]
      }
    }
  ]
}